FLOCK 4V 23
1 46737U 20061BM  22133.15298114  .00013600  00000-0  63748-3 0  9999
2 46737  97.3954 204.9186 0004037 208.7476 151.3537 15.19799279 86305
FLOCK 4V 24
1 46738U 20061BN  22133.20662884  .00012562  00000-0  58920-3 0  9997
2 46738  97.4040 205.4928 0004877 267.7745  92.2929 15.19793070 85871
FLOCK 4V 25
1 46812U 20061BP  22132.64549258  .00009205  00000-0  43261-3 0  9998
2 46812  97.3918 204.5014 0004976 210.0311 150.0635 15.19805025 85447
FLOCK 4EP 1
1 46813U 20077A   22133.18973417  .00022088  00000-0  99553-3 0  9993
2 46813  97.4234 196.3514 0012084 171.8968 188.2465 15.20988193 85112
FLOCK 4EP 7
1 46814U 20077B   22133.20362035  .00016379  00000-0  73659-3 0  9990
2 46814  97.4236 196.4992 0012711 166.3629 193.7953 15.21118992 85123
FLOCK 4EP 9
1 46815U 20077C   22133.05652497  .00007991  00000-0  37910-3 0  9998
2 46815  97.4209 196.1313 0012440 164.2229 195.9395 15.19466628 85101
FLOCK 4EP 8
1 46816U 20077D   22133.16507680  .00008116  00000-0  36722-3 0  9994
2 46816  97.4258 196.8329 0010601 156.3806 203.7919 15.21119406 85135
FLOCK 4EP 5
1 46817U 20077E   22133.17914664  .00008050  00000-0  36332-3 0  9994
2 46817  97.4261 197.1245 0014837 153.2007 206.9998 15.21158687 85153
FLOCK 4EP 3
1 46819U 20077G   22133.36198125  .00016482  00000-0  74056-3 0  9996
2 46819  97.4233 197.1897 0015839 146.4425 279.3042 15.21109251 85188
FLOCK 4EP 2
1 46820U 20077H   22133.12726225  .00013292  00000-0  60355-3 0  9993
2 46820  97.4296 197.3734 0014975 140.5085 219.7245 15.20809360 85155
FLOCK 4EP 4
1 46821U 20077J   22133.15441994  .00011514  00000-0  52987-3 0  9991
2 46821  97.4253 197.2107 0015383 136.7843 223.4602 15.20375343 85120
FLOCK 4EP 6
1 46822U 20077K   22132.94106382  .00007433  00000-0  34873-3 0  9996
2 46822  97.4225 196.3426 0012585 143.3229 216.8897 15.19875144 85110
FLOCK 4V 26
1 46825U 20061BQ  22133.14726674  .00006259  00000-0  29470-3 0  9999
2 46825  97.4057 205.4056 0003733 279.8965  80.1847 15.19878302 85053
FLOCK 4S 22
1 47452U 21006AR  22132.88235062  .00012154  00000-0  64524-3 0  9992
2 47452  97.4473 192.8671 0011801  48.1305 312.0933 15.15411340 71884
FLOCK 4S 21
1 47456U 21006AV  22132.88571774  .00004794  00000-0  25699-3 0  9990
2 47456  97.4480 192.9122 0011619  47.5555 312.6658 15.15395036 71888
FLOCK 4S 11
1 47462U 21006BB  22132.89598719  .00005320  00000-0  30249-3 0  9999
2 47462  97.4435 191.7384 0009695  69.1148 291.1120 15.13256148 71828
FLOCK 4S 33
1 47469U 21006BJ  22132.65026250  .00006914  00000-0  36901-3 0  9997
2 47469  97.4435 192.0506 0008264  66.6436 293.5665 15.15421904 71824
FLOCK 4S 12
1 47471U 21006BL  22132.64536687  .00005309  00000-0  28380-3 0  9998
2 47471  97.4462 192.2563 0008968  67.8431 292.3752 15.15469536 71828
FLOCK 4S 13
1 47472U 21006BM  22133.15920285  .00014635  00000-0  77726-3 0  9997
2 47472  97.4494 192.9455 0009284  64.4492 295.7699 15.15377096 71908
FLOCK 4S 35
1 47473U 21006BN  22133.15435554  .00015010  00000-0  78371-3 0  9993
2 47473  97.4479 192.8876 0008413  64.6364 295.5739 15.15982373 71904
FLOCK 4S 8
1 47474U 21006BP  22132.88323101  .00003484  00000-0  19446-3 0  9997
2 47474  97.4416 192.0466 0009627  64.5334 295.6893 15.14152003 71851
FLOCK 4S 31
1 47475U 21006BQ  22133.15641069  .00014662  00000-0  77788-3 0  9998
2 47475  97.4418 192.4830 0008609  63.3233 296.8880 15.15419503 71904
FLOCK 4S 34
1 47477U 21006BS  22132.90191918  .00015342  00000-0  81435-3 0  9995
2 47477  97.4477 192.5928 0008484  63.9680 296.2425 15.15393577 71869
FLOCK 4S 9
1 47478U 21006BT  22132.90232443  .00014310  00000-0  76081-3 0  9990
2 47478  97.4422 192.2344 0009208  66.6371 293.5829 15.15344837 71864
FLOCK 4S 32
1 47479U 21006BU  22132.89506628  .00016564  00000-0  86368-3 0  9990
2 47479  97.4423 192.2659 0007969  68.1559 292.0521 15.16010200 71860
FLOCK 4S 39
1 47490U 21006CF  22133.12827965  .00013892  00000-0  73662-3 0  9994
2 47490  97.4510 193.2524 0010972  52.7468 307.4763 15.15430426 71918
FLOCK 4S 4
1 47491U 21006CG  22132.59616262  .00004509  00000-0  24170-3 0  9996
2 47491  97.4392 192.0189 0010873  51.5391 308.6815 15.15432825 71830
