index,OBJECT_NAME,OBJECT_ID,EPOCH,MEAN_MOTION,ECCENTRICITY,INCLINATION,RA_OF_ASC_NODE,ARG_OF_PERICENTER,MEAN_ANOMALY,EPHEMERIS_TYPE,CLASSIFICATION_TYPE,NORAD_CAT_ID,ELEMENT_SET_NO,REV_AT_EPOCH,BSTAR,MEAN_MOTION_DOT,MEAN_MOTION_DDOT,GROUP,downloaded
116,FLOCK 4V-23,2020-061BM,2022-05-13T03:40:17.570496,15.19799279,0.0004037,97.3954,204.9186,208.7476,151.3537,0,U,46737,999,8630,0.00063748,0.000136,0.0,planet,2022-05-13 13:10:39.124476
117,FLOCK 4V-24,2020-061BN,2022-05-13T04:57:32.731776,15.1979307,0.0004877,97.404,205.4928,267.7745,92.2929,0,U,46738,999,8587,0.0005892,0.00012562,0.0,planet,2022-05-13 13:10:39.124476
118,FLOCK 4V-25,2020-061BP,2022-05-12T15:29:30.558912,15.19805025,0.0004976,97.3918,204.5014,210.0311,150.0635,0,U,46812,999,8544,0.00043261,9.205e-05,0.0,planet,2022-05-13 13:10:39.124476
119,FLOCK 4E'-1,2020-077A,2022-05-13T04:33:13.032288,15.20988193,0.0012084,97.4234,196.3514,171.8968,188.2465,0,U,46813,999,8511,0.00099553,0.00022088,0.0,planet,2022-05-13 13:10:39.124476
120,FLOCK 4E'-7,2020-077B,2022-05-13T04:53:12.798240,15.21118992,0.0012711,97.4236,196.4992,166.3629,193.7953,0,U,46814,999,8512,0.00073659,0.00016379,0.0,planet,2022-05-13 13:10:39.124476
121,FLOCK 4E'-9,2020-077C,2022-05-13T01:21:23.757408,15.19466628,0.001244,97.4209,196.1313,164.2229,195.9395,0,U,46815,999,8510,0.0003791,7.991e-05,0.0,planet,2022-05-13 13:10:39.124476
122,FLOCK 4E'-8,2020-077D,2022-05-13T03:57:42.635520,15.21119406,0.0010601,97.4258,196.8329,156.3806,203.7919,0,U,46816,999,8513,0.00036722,8.116e-05,0.0,planet,2022-05-13 13:10:39.124476
123,FLOCK 4E'-5,2020-077E,2022-05-13T04:17:58.269696,15.21158687,0.0014837,97.4261,197.1245,153.2007,206.9998,0,U,46817,999,8515,0.00036332,8.05e-05,0.0,planet,2022-05-13 13:10:39.124476
124,FLOCK 4E'-3,2020-077G,2022-05-13T08:41:15.180000,15.21109251,0.0015839,97.4233,197.1897,146.4425,279.3042,0,U,46819,999,8518,0.00074056,0.00016482,0.0,planet,2022-05-13 13:10:39.124476
125,FLOCK 4E'-2,2020-077H,2022-05-13T03:03:15.458400,15.2080936,0.0014975,97.4296,197.3734,140.5085,219.7245,0,U,46820,999,8515,0.00060355,0.00013292,0.0,planet,2022-05-13 13:10:39.124476
126,FLOCK 4E'-4,2020-077J,2022-05-13T03:42:21.882816,15.20375343,0.0015383,97.4253,197.2107,136.7843,223.4602,0,U,46821,999,8512,0.00052987,0.00011514,0.0,planet,2022-05-13 13:10:39.124476
127,FLOCK 4E'-6,2020-077K,2022-05-12T22:35:07.914048,15.19875144,0.0012585,97.4225,196.3426,143.3229,216.8897,0,U,46822,999,8511,0.00034873,7.433e-05,0.0,planet,2022-05-13 13:10:39.124476
128,FLOCK 4V-26,2020-061BQ,2022-05-13T03:32:03.846336,15.19878302,0.0003733,97.4057,205.4056,279.8965,80.1847,0,U,46825,999,8505,0.0002947,6.259e-05,0.0,planet,2022-05-13 13:10:39.124476
129,FLOCK 4S-22,2021-006AR,2022-05-12T21:10:35.093568,15.1541134,0.0011801,97.4473,192.8671,48.1305,312.0933,0,U,47452,999,7188,0.00064524,0.00012154,0.0,planet,2022-05-13 13:10:39.124476
130,FLOCK 4S-21,2021-006AV,2022-05-12T21:15:26.012736,15.15395036,0.0011619,97.448,192.9122,47.5555,312.6658,0,U,47456,999,7188,0.00025699,4.794e-05,0.0,planet,2022-05-13 13:10:39.124476
131,FLOCK 4S-11,2021-006BB,2022-05-12T21:30:13.293216,15.13256148,0.0009695,97.4435,191.7384,69.1148,291.112,0,U,47462,999,7182,0.00030249,5.32e-05,0.0,planet,2022-05-13 13:10:39.124476
132,FLOCK 4S-33,2021-006BJ,2022-05-12T15:36:22.680000,15.15421904,0.0008264,97.4435,192.0506,66.6436,293.5665,0,U,47469,999,7182,0.00036901,6.914e-05,0.0,planet,2022-05-13 13:10:39.124476
133,FLOCK 4S-12,2021-006BL,2022-05-12T15:29:19.697568,15.15469536,0.0008968,97.4462,192.2563,67.8431,292.3752,0,U,47471,999,7182,0.0002838,5.309e-05,0.0,planet,2022-05-13 13:10:39.124476
134,FLOCK 4S-13,2021-006BM,2022-05-13T03:49:15.126240,15.15377096,0.0009284,97.4494,192.9455,64.4492,295.7699,0,U,47472,999,7190,0.00077726,0.00014635,0.0,planet,2022-05-13 13:10:39.124476
135,FLOCK 4S-35,2021-006BN,2022-05-13T03:42:16.318656,15.15982373,0.0008413,97.4479,192.8876,64.6364,295.5739,0,U,47473,999,7190,0.00078371,0.0001501,0.0,planet,2022-05-13 13:10:39.124476
136,FLOCK 4S-8,2021-006BP,2022-05-12T21:11:51.159264,15.14152003,0.0009627,97.4416,192.0466,64.5334,295.6893,0,U,47474,999,7185,0.00019446,3.484e-05,0.0,planet,2022-05-13 13:10:39.124476
137,FLOCK 4S-31,2021-006BQ,2022-05-13T03:45:13.883616,15.15419503,0.0008609,97.4418,192.483,63.3233,296.888,0,U,47475,999,7190,0.00077788,0.00014662,0.0,planet,2022-05-13 13:10:39.124476
138,FLOCK 4S-34,2021-006BS,2022-05-12T21:38:45.817152,15.15393577,0.0008484,97.4477,192.5928,63.968,296.2425,0,U,47477,999,7186,0.00081435,0.00015342,0.0,planet,2022-05-13 13:10:39.124476
139,FLOCK 4S-9,2021-006BT,2022-05-12T21:39:20.830752,15.15344837,0.0009208,97.4422,192.2344,66.6371,293.5829,0,U,47478,999,7186,0.00076081,0.0001431,0.0,planet,2022-05-13 13:10:39.124476
140,FLOCK 4S-32,2021-006BU,2022-05-12T21:28:53.726592,15.160102,0.0007969,97.4423,192.2659,68.1559,292.0521,0,U,47479,999,7186,0.00086368,0.00016564,0.0,planet,2022-05-13 13:10:39.124476
141,FLOCK 4S-39,2021-006CF,2022-05-13T03:04:43.361760,15.15430426,0.0010972,97.451,193.2524,52.7468,307.4763,0,U,47490,999,7191,0.00073662,0.00013892,0.0,planet,2022-05-13 13:10:39.124476
142,FLOCK 4S-4,2021-006CG,2022-05-12T14:18:28.450368,15.15432825,0.0010873,97.4392,192.0189,51.5391,308.6815,0,U,47491,999,7183,0.0002417,4.509e-05,0.0,planet,2022-05-13 13:10:39.124476
